{"Supplier Name":"4DATA Hall 1 Pty Ltd (trading as 4DATA)","ABN":"51 137 899 346","State":"ACT","Postcode":2609}
{"Supplier Name":"A&A Testing Consultants Pty Ltd","ABN":"95 127 484 904","State":"NSW","Postcode":2620}
{"Supplier Name":"Access Testing Pty Ltd trading as AccessHQ","ABN":"13 069 942 552","State":"ACT","Postcode":2602}
{"Supplier Name":"AccessibilityOz Pty Ltd","ABN":"52 150 446 521","State":"VIC","Postcode":3000}
{"Supplier Name":"Accessity Pty Ltd","ABN":"18 120 507 137","State":"ACT","Postcode":2617}
{"Supplier Name":"ACSPRO Pty Ltd","ABN":"49 800 667 911","State":"ACT","Postcode":2600}
{"Supplier Name":"Adaps IT Pty Ltd","ABN":"50 169 520 478","State":"VIC","Postcode":3004}
{"Supplier Name":"Adelphi Digital Consulting Group Pty Ltd","ABN":"43 096 505 805","State":"ACT","Postcode":2612}
{"Supplier Name":"AGIS Group Pty Ltd","ABN":"34 129 384 032","State":"ACT","Postcode":2602}
{"Supplier Name":"Ajilon","ABN":"14 007 145 637","State":"ACT","Postcode":2600}
{"Supplier Name":"Analytics Group Pty Ltd","ABN":"45 119 601 759","State":"ACT","Postcode":2612}
{"Supplier Name":"Apis Group Pty Ltd","ABN":"91 125 472 899","State":"ACT","Postcode":2600}
{"Supplier Name":"Aquasora Pty Ltd","ABN":"57 122 300 636","State":"ACT","Postcode":2603}
{"Supplier Name":"Aristech Pty Ltd","ABN":"15 126 132 590","State":"ACT","Postcode":2912}
{"Supplier Name":"Artis Group Pty Ltd","ABN":"21 116 237 284","State":"NSW","Postcode":2065}
{"Supplier Name":"ASG Group Ltd","ABN":"57 070 045 117","State":"ACT","Postcode":2600}
{"Supplier Name":"ASPL Australia Pty Ltd","ABN":"83 123 668 940","State":"ACT","Postcode":2600}
{"Supplier Name":"Aurec Pty ltd","ABN":"60 103 121 464","State":"NSW","Postcode":2000}
{"Supplier Name":"Aviko Pty Ltd","ABN":"90 008 591 008","State":"ACT","Postcode":2612}
{"Supplier Name":"BAE Systems Applied Intelligence Pty Limited","ABN":"14 111 187 270","State":"ACT","Postcode":2603}
{"Supplier Name":"Balance Recruitment Pty Ltd","ABN":"50 175 029 245","State":"ACT","Postcode":2601}
{"Supplier Name":"Beyond Technology International Pty Ltd t\/a Beyond Technology","ABN":"76 600 455 963","State":"QLD","Postcode":4001}
{"Supplier Name":"BI Group Australia Pty Ltd","ABN":"30 122 228 004","State":"VIC","Postcode":3000}
{"Supplier Name":"Biztech Enterprise Solutions","ABN":"26 300 662 281","State":"VIC","Postcode":3004}
{"Supplier Name":"Bluefin Resources Pty Ltd","ABN":"48 106 436 837","State":"NSW","Postcode":2000}
{"Supplier Name":"Bridge IT Engineering Pty Ltd","ABN":"11 087 255 472","State":"ACT","Postcode":2612}
{"Supplier Name":"Bright Consulting","ABN":"85 156 575 647","State":"ACT","Postcode":2608}
{"Supplier Name":"BSI People Pty Ltd","ABN":"45 096 568 259","State":"NSW","Postcode":2000}
{"Supplier Name":"Bullseye (Asia Pascific) Pty Ltd","ABN":"23 090 593 525","State":"NSW","Postcode":2065}
{"Supplier Name":"Business Aspect (ACT) Pty Ltd","ABN":"61 121 411 274","State":"QLD","Postcode":4066}
{"Supplier Name":"Bytecode Pty Ltd","ABN":"89 081 322 518","State":"ACT","Postcode":2615}
{"Supplier Name":"Callida Consulting","ABN":"40 154 007 664","State":"ACT","Postcode":2601}
{"Supplier Name":"Canberra Consulting Pty Ltd","ABN":"57 139 224 436","State":"ACT","Postcode":2601}
{"Supplier Name":"Capgemini Australia Pty Ltd","ABN":"11 092 284 314","State":"ACT","Postcode":2608}
{"Supplier Name":"CGI Technologies and Solutions Australia Pty Ltd","ABN":"39 001 260 699","State":"ACT","Postcode":2612}
{"Supplier Name":"Chamonix IT Management Consulting Pty Ltd","ABN":"27 145 006 006","State":"VIC","Postcode":3000}
{"Supplier Name":"Chandler Macleod Group","ABN":"33 090 555 052","State":"NSW","Postcode":2000}
{"Supplier Name":"Citadel Systems Pty Ltd","ABN":"45 108 262 942","State":"ACT","Postcode":2601}
{"Supplier Name":"Clarity Business and IT Solutions Pty Ltd","ABN":"83 140 112 205","State":"QLD","Postcode":4000}
{"Supplier Name":"Clarius Group Ltd","ABN":"43 002 724 334","State":"ACT","Postcode":2604}
{"Supplier Name":"Clicks Recruit (Australia) Pty Ltd","ABN":"25 348 636 087","State":"ACT","Postcode":2601}
{"Supplier Name":"Codarra Advanced Systems Pty Ltd","ABN":"81 008 651 723","State":"ACT","Postcode":2620}
{"Supplier Name":"Cogility Consulting Pty Ltd","ABN":"62 125 464 173","State":"QLD","Postcode":4001}
{"Supplier Name":"Communications Design & Management Pty Ltd","ABN":"15 053 788 720","State":"ACT","Postcode":2609}
{"Supplier Name":"Compas Pty Ltd","ABN":"90 008 615 745","State":"ACT","Postcode":2617}
{"Supplier Name":"Cordelta Pty Ltd","ABN":"69 107 788 401","State":"ACT","Postcode":2606}
{"Supplier Name":"Cosmic Tech Solutions Pty ltd","ABN":"74 120 044 484","State":"ACT","Postcode":2914}
{"Supplier Name":"CPT Global Australia Pty Ltd","ABN":"66 099 766 239","State":"VIC","Postcode":3006}
{"Supplier Name":"Data#3 Ltd","ABN":"31 010 545 267","State":"NSW","Postcode":2060}
{"Supplier Name":"Datacom Systems (ACT) Pty Ltd","ABN":"39 135 427 075","State":"ACT","Postcode":2612}
{"Supplier Name":"Dataflex Pty Ltd","ABN":"95 008 623 489","State":"ACT","Postcode":2604}
{"Supplier Name":"Datatech Consulting Pty Ltd","ABN":"55 124 436 246","State":"VIC","Postcode":3000}
{"Supplier Name":"Dell Australia Pty Ltd","ABN":"46 003 855 561","State":"NSW","Postcode":2086}
{"Supplier Name":"Delv Pty Ltd","ABN":"30 095 668 223","State":"ACT","Postcode":2600}
{"Supplier Name":"Design Managers Australia Pty Ltd","ABN":"33 161 327 171","State":"ACT","Postcode":2612}
{"Supplier Name":"Devsgroup Pty Ltd","ABN":"43 121 043 016","State":"ACT","Postcode":2906}
{"Supplier Name":"DFP Recruitment Services as Trustee for DFP Business Trust","ABN":"66 394 749 447","State":"VIC","Postcode":3000}
{"Supplier Name":"Dialog Pty Ltd","ABN":"16 010 089 175","State":"ACT","Postcode":2602}
{"Supplier Name":"Dimension Data Australia Pty Ltd","ABN":"65 003 371 239","State":"ACT","Postcode":2609}
{"Supplier Name":"Directory Concepts Pty Ltd","ABN":"30 129 608 448","State":"NSW","Postcode":2059}
{"Supplier Name":"DWS (NSW) Pty Ltd","ABN":"93 115 070 301","State":"ACT","Postcode":2600}
{"Supplier Name":"Dynamo Recruitment Pty Ltd","ABN":"72 865 179 249","State":"VIC","Postcode":3205}
{"Supplier Name":"E-Serve Pty Ltd","ABN":"29 125 037 149","State":"ACT","Postcode":2914}
{"Supplier Name":"eConnect Solutions Pty Ltd","ABN":"34 115 058 350","State":"ACT","Postcode":2616}
{"Supplier Name":"Eden Ritchie Recruitment Pty Ltd","ABN":"42 072 957 923","State":"QLD","Postcode":4001}
{"Supplier Name":"eKonsulting Pty Ltd","ABN":"15 086 357 637","State":"ACT","Postcode":2611}
{"Supplier Name":"Emantra Pty Ltd (QLD)","ABN":"98 116 306 453","State":"QLD","Postcode":4000}
{"Supplier Name":"Encore IT Services Pty Ltd","ABN":"29 099 576 922","State":"ACT","Postcode":2904}
{"Supplier Name":"EPI-USE Australia Pty Ltd","ABN":"74 126 123 108","State":"NSW","Postcode":2060}
{"Supplier Name":"Excelerated Consulting Pty ltd","ABN":"30 082 667 776","State":"ACT","Postcode":2603}
{"Supplier Name":"Exclaim IT Pty Ltd","ABN":"97 109 189 059","State":"QLD","Postcode":4000}
{"Supplier Name":"face2face Recruitment Pty Ltd","ABN":"47 112 122 504","State":"ACT","Postcode":2600}
{"Supplier Name":"Facet Consulting Pty Ltd","ABN":"93 103 238 759","State":"QLD","Postcode":4064}
{"Supplier Name":"Finite Group APAC Pty Ltd","ABN":"43 085 406 300","State":"NSW","Postcode":2000}
{"Supplier Name":"Finkisoft Pty Ltd","ABN":"98 127 371 064","State":"ACT","Postcode":2617}
{"Supplier Name":"Foresight IT Consulting Pty Ltd","ABN":"82 119 675 204","State":"ACT","Postcode":2615}
{"Supplier Name":"Frontier Group Australia Pty Ltd","ABN":"77 087 743 879","State":"ACT","Postcode":2612}
{"Supplier Name":"Fuji Xerox Australia Pty Ltd","ABN":"63 000 341 819","State":"ACT","Postcode":2609}
{"Supplier Name":"Fujitsu Australia Ltd","ABN":"19 001 011 427","State":"ACT","Postcode":2612}
{"Supplier Name":"Funnelback Pty Ltd","ABN":"34 116 105 296","State":"ACT","Postcode":2602}
{"Supplier Name":"Gel Gov Group Pty Ltd","ABN":"46 008 617 114","State":"ACT","Postcode":2600}
{"Supplier Name":"Global Skill Exchange Pty Ltd","ABN":"35 129 590 656","State":"QLD","Postcode":4305}
{"Supplier Name":"GMT Canberra Pty Ltd","ABN":"81 103 672 439","State":"ACT","Postcode":2607}
{"Supplier Name":"Gordon Group Consulting Pty Ltd","ABN":"86 104 362 576","State":"NSW","Postcode":2000}
{"Supplier Name":"Grant Thornton Australia Pty Ltd","ABN":"41 127 556 389","State":"VIC","Postcode":3001}
{"Supplier Name":"GrayMorr Consulting Pty Ltd","ABN":"87 129 502 567","State":"NSW","Postcode":2620}
{"Supplier Name":"Greythorn Pty Ltd","ABN":"57 071 352 031","State":"ACT","Postcode":2601}
{"Supplier Name":"Hamilton James & Bruce Pty Ltd","ABN":"11 002 921 468","State":"ACT","Postcode":2601}
{"Supplier Name":"Hays Specialist Recruitment (Australia) Pty Ltd","ABN":"47 001 407 281","State":"ACT","Postcode":2601}
{"Supplier Name":"HiTech Group Australia Ltd","ABN":"41 062 067 878","State":"NSW","Postcode":2000}
{"Supplier Name":"Holocentric Pty Ltd","ABN":"73 052 972 095","State":"NSW","Postcode":2060}
{"Supplier Name":"Horizon Consulting Pty Ltd","ABN":"67 100 724 338","State":"NSW","Postcode":2000}
{"Supplier Name":"Hudson Global Resources (Aust) Pty Ltd","ABN":"21 002 888 762","State":"ACT","Postcode":2600}
{"Supplier Name":"IBM Australia Ltd","ABN":"79 000 024 733","State":"ACT","Postcode":2600}
{"Supplier Name":"ICM Consulting Pty Ltd","ABN":"64 143 127 404","State":"NSW","Postcode":2107}
{"Supplier Name":"iCognition Pty Ltd","ABN":"92 104 128 001","State":"ACT","Postcode":2601}
{"Supplier Name":"IMA Management and Technology Pty Ltd","ABN":"78 159 837 939","State":"NSW","Postcode":2060}
{"Supplier Name":"Implementation Soft Australia Pty Ltd","ABN":"52 112 055 302","State":"NSW","Postcode":2000}
{"Supplier Name":"Infinite Consulting Pty Ltd","ABN":"56 081 954 645","State":"ACT","Postcode":2612}
{"Supplier Name":"InfoFocus","ABN":"44 001 835 838","State":"ACT","Postcode":2605}
{"Supplier Name":"InfoRail Pty Ltd","ABN":"33 008 615 441","State":"ACT","Postcode":2603}
{"Supplier Name":"Information Management Careers Pty Ltd","ABN":"57 146 661 494","State":"VIC","Postcode":3000}
{"Supplier Name":"Infosys Technologies Limited","ABN":"52 090 591 209","State":"VIC","Postcode":3008}
{"Supplier Name":"Innovative Business Computing Pty Ltd","ABN":"40 073 110 022","State":"ACT","Postcode":2905}
{"Supplier Name":"Inspired Apps Pty Ltd","ABN":"71 145 171 071","State":"ACT","Postcode":2914}
{"Supplier Name":"Intech Solutions Pty Ltd","ABN":"45 002 812 697","State":"NSW","Postcode":2022}
{"Supplier Name":"Internet Solutions Australia Pty Ltd","ABN":"65 108 451 378","State":"NSW","Postcode":2500}
{"Supplier Name":"Interpro Australia Pty Ltd","ABN":"59 086 726 374","State":"NSW","Postcode":2000}
{"Supplier Name":"Ionize Pty Ltd","ABN":"62 132 569 941","State":"ACT","Postcode":2615}
{"Supplier Name":"IT Newcom Pty Ltd","ABN":"50 077 613 828","State":"NSW","Postcode":2060}
{"Supplier Name":"Itcom Australia Pty Ltd","ABN":"67 064 911 404","State":"VIC","Postcode":3000}
{"Supplier Name":"Jacobs Australia Pty Limited","ABN":"12 079 749 287","State":"ACT","Postcode":2600}
{"Supplier Name":"K.J.Ross & Associates Pty Ltd","ABN":"11 079 218 652","State":"QLD","Postcode":4226}
{"Supplier Name":"Knight Errant Pty Ltd","ABN":"68 091 099 151","State":"TAS","Postcode":7000}
{"Supplier Name":"Kohlbahdin Pty Ltd","ABN":"77 067 178 778","State":"ACT","Postcode":2606}
{"Supplier Name":"Konica Minolta Business Solutions Australia Pty Ltd","ABN":"50 001 065 096","State":"ACT","Postcode":2604}
{"Supplier Name":"KPMG","ABN":"51 194 660 183","State":"ACT","Postcode":2609}
{"Supplier Name":"Ladoo Pty Ltd","ABN":"71 147 121 551","State":"VIC","Postcode":3000}
{"Supplier Name":"Leo Microsystems Pty Ltd","ABN":"43 120 297 092","State":"NSW","Postcode":2000}
{"Supplier Name":"M&T Resources Pty Ltd","ABN":"27 132 349 458","State":"ACT","Postcode":2609}
{"Supplier Name":"Macro Recruitment Australasia Pty Ltd","ABN":"25 103 297 552","State":"VIC","Postcode":3121}
{"Supplier Name":"Manpower Services (Australia) Pty Ltd","ABN":"15 071 884 994","State":"NSW","Postcode":2000}
{"Supplier Name":"Merewyn Partners Pty Ltd","ABN":"42 152 757 929","State":"NSW","Postcode":2077}
{"Supplier Name":"MIP (Aust) Pty Ltd","ABN":"21 111 378 968","State":"NSW","Postcode":2060}
{"Supplier Name":"MXA Consulting Pty Ltd","ABN":"16 233 295 918","State":"ACT","Postcode":2904}
{"Supplier Name":"National Technical Services Pty Ltd","ABN":"96 059 802 934","State":"NSW","Postcode":2759}
{"Supplier Name":"NCSI Australia Pty Ltd","ABN":"38 089 983 317","State":"NSW","Postcode":2067}
{"Supplier Name":"NEC Australia Pty Ltd","ABN":"86 001 217 527","State":"VIC","Postcode":3170}
{"Supplier Name":"NetReturn Consulting Pty Ltd","ABN":"71 124 587 426","State":"NSW","Postcode":2000}
{"Supplier Name":"Northrop Grumman M5 Network Security Pty Ltd","ABN":"58 101 674 444","State":"ACT","Postcode":2612}
{"Supplier Name":"Nous Group Pty Ltd","ABN":"66 086 210 344","State":"VIC","Postcode":3000}
{"Supplier Name":"NTT Com ICT Solutions Australia Pty Ltd","ABN":"61 059 040 998","State":"ACT","Postcode":2612}
{"Supplier Name":"NTT DATA Business Solutions Australia Pty Ltd","ABN":"78 106 676 359","State":"QLD","Postcode":4008}
{"Supplier Name":"Oakton Contracting and Recruitment Pty Ltd","ABN":"80 077 571 843","State":"ACT","Postcode":2604}
{"Supplier Name":"Omaha IT Services Pty Ltd","ABN":"50 050 494 196","State":"ACT","Postcode":2904}
{"Supplier Name":"Online 89 Pty Ltd","ABN":"36 008 658 017","State":"ACT","Postcode":2913}
{"Supplier Name":"OPC IT Pty Ltd","ABN":"29 008 657 618","State":"ACT","Postcode":2606}
{"Supplier Name":"Optus Network Pty Ltd","ABN":"92 008 570 330","State":"ACT","Postcode":2601}
{"Supplier Name":"Paxus Australia Pty Ltd","ABN":"35 004 609 616","State":"ACT","Postcode":2612}
{"Supplier Name":"Pegasus Global Pty Ltd","ABN":"72 106 208 066","State":"NSW","Postcode":2000}
{"Supplier Name":"Peoplebank Australia Ltd","ABN":"42 003 995 748","State":"NSW","Postcode":2606}
{"Supplier Name":"Perocin Pty Ltd","ABN":"15 079 494 518","State":"ACT","Postcode":2617}
{"Supplier Name":"Phoenix Management Services Pty Ltd","ABN":"11 151 887 802","State":"NSW","Postcode":2620}
{"Supplier Name":"PLAUT IT (Australia) Pty Ltd","ABN":"17 092 547 218","State":"ACT","Postcode":2609}
{"Supplier Name":"Powerdata Group Consulting Pty Ltd","ABN":"15 107 160 770","State":"VIC","Postcode":3146}
{"Supplier Name":"Precision Consulting Corporation Pty Limited","ABN":"91 131 039 506","State":"NSW","Postcode":1765}
{"Supplier Name":"Predicate Partners Pty Ltd","ABN":"34 128 711 348","State":"ACT","Postcode":2601}
{"Supplier Name":"Procurement Professionals Pty Ltd","ABN":"20 076 432 212","State":"ACT","Postcode":2905}
{"Supplier Name":"Programmed Professionals Pty Ltd","ABN":"40 124 764 245","State":"NSW","Postcode":2000}
{"Supplier Name":"Project People Consulting Pty Ltd","ABN":"69 109 750 647","State":"NSW","Postcode":2000}
{"Supplier Name":"Providence Consulting Group Pty Ltd as Trustee for Providence Consulting Group Unit Trust","ABN":"Exempt","State":"ACT","Postcode":2600}
{"Supplier Name":"Proximity Advisory Services Pty Ltd","ABN":"92 147 937 844","State":"ACT","Postcode":2604}
{"Supplier Name":"PwC Australia","ABN":"52 780 433 757","State":"ACT","Postcode":2603}
{"Supplier Name":"Qirx Pty Ltd","ABN":"62 092 934 659","State":"ACT","Postcode":2911}
{"Supplier Name":"QR Solutions Pty Ltd","ABN":"42 110 324 788","State":"NSW","Postcode":2137}
{"Supplier Name":"Rapid Technology Group Pty Ltd","ABN":"15 098 987 190","State":"NSW","Postcode":2537}
{"Supplier Name":"Redback Consulting Pty Ltd","ABN":"50 104 427 161","State":"ACT","Postcode":2600}
{"Supplier Name":"Revolution IT Pty Ltd","ABN":"32 107 913 342","State":"ACT","Postcode":2000}
{"Supplier Name":"Ridgeline Solutions Australia Pty Ltd","ABN":"43 125 552 383","State":"ACT","Postcode":2603}
{"Supplier Name":"RNC Pty Ltd","ABN":"18 086 411 467","State":"NSW","Postcode":2040}
{"Supplier Name":"Roll Inn Pty Ltd","ABN":"73 153 698 036","State":"ACT","Postcode":2615}
{"Supplier Name":"RPV Consultants Pty Ltd","ABN":"97 117 432 354","State":"ACT","Postcode":2602}
{"Supplier Name":"RXP Services Ltd","ABN":"30 146 959 917","State":"VIC","Postcode":3000}
{"Supplier Name":"Saltbush Consulting Pty Ltd","ABN":"58 134 662 963","State":"ACT","Postcode":2600}
{"Supplier Name":"SAS Institute Australia Pty Ltd","ABN":"13 002 287 247","State":"NSW","Postcode":2066}
{"Supplier Name":"Sensory7 Pty Ltd","ABN":"75 089 625 436","State":"ACT","Postcode":2601}
{"Supplier Name":"Sentio Consulting Pty Ltd","ABN":"89 151 227 511","State":"ACT","Postcode":2904}
{"Supplier Name":"Shearwater Solutions Pty Ltd","ABN":"96 083 648 524","State":"NSW","Postcode":2057}
{"Supplier Name":"Smarter Contracting Pty Ltd","ABN":"91 102 844 664","State":"ACT","Postcode":2606}
{"Supplier Name":"SME Gateway Pty Ltd","ABN":"51 106 981 560","State":"ACT","Postcode":2604}
{"Supplier Name":"SOFTTEST Pays Pty Ltd","ABN":"92 129 869 174","State":"ACT","Postcode":2913}
{"Supplier Name":"Software AG Australia Pty Ltd","ABN":"30 090 139 503","State":"NSW","Postcode":2060}
{"Supplier Name":"Southern Cross Computing Pty Ltd","ABN":"71 008 626 131","State":"ACT","Postcode":2600}
{"Supplier Name":"StarTech IT Consulting Pty Ltd","ABN":"99 105 171 819","State":"ACT","Postcode":2607}
{"Supplier Name":"Strategic Reform Pty Ltd","ABN":"34 146 766 707","State":"ACT","Postcode":2913}
{"Supplier Name":"Sunshine Quest Pty Ltd","ABN":"56 146 309 944","State":"ACT","Postcode":2615}
{"Supplier Name":"Synergy Group Australia Pty Ltd","ABN":"65 119 369 827","State":"ACT","Postcode":2600}
{"Supplier Name":"SYPAQ Systems Pty Ltd","ABN":"90 058 352 122","State":"VIC","Postcode":3004}
{"Supplier Name":"Tactiv Pty Ltd","ABN":"76 152 219 335","State":"QLD","Postcode":4101}
{"Supplier Name":"Talent International (ACT) Pty Ltd","ABN":"95 121 819 305","State":"ACT","Postcode":2600}
{"Supplier Name":"Tata Consultantcy Services Ltd","ABN":"28 109 981 777","State":"NSW","Postcode":2060}
{"Supplier Name":"TatvaSoft Australia Pty Ltd","ABN":"64 141 632 144","State":"NSW","Postcode":2072}
{"Supplier Name":"Tecala ICT Pty Ltd","ABN":"41 134 159 434","State":"NSW","Postcode":2153}
{"Supplier Name":"Tech Mahindra Limited","ABN":"15 092 511 558","State":"ACT","Postcode":2601}
{"Supplier Name":"Technology Communications Management Pty Ltd","ABN":"78 083 902 783","State":"ACT","Postcode":2614}
{"Supplier Name":"Technology, People and Governance Pty Ltd","ABN":"47 125 859 029","State":"ACT","Postcode":2902}
{"Supplier Name":"Techpoint Consulting Pty Ltd","ABN":"63 075 561 778","State":"NSW","Postcode":2258}
{"Supplier Name":"Tescom Australasia Pty Ltd","ABN":"35 094 755 807","State":"ACT","Postcode":2602}
{"Supplier Name":"TestLogistics Pty Ltd","ABN":"76 126 972 030","State":"NSW","Postcode":2000}
{"Supplier Name":"The Frame Group Pty Ltd","ABN":"48 095 369 403","State":"NSW","Postcode":2001}
{"Supplier Name":"The Recruitment Hive Pty Ltd","ABN":"13 155 397 541","State":"ACT","Postcode":2620}
{"Supplier Name":"Thinkstream Pty Ltd","ABN":"65 718 669 825","State":"ACT","Postcode":2609}
{"Supplier Name":"Titan Recruitment Pty Ltd trading as Titan ICT Consultants","ABN":"34 086 897 636","State":"WA","Postcode":6005}
{"Supplier Name":"TRA Global Pty Ltd","ABN":"72 127 820 071","State":"NSW","Postcode":2000}
{"Supplier Name":"Tracey Brunstrom & Hammond Pty Ltd","ABN":"73 008 444 700","State":"NSW","Postcode":2060}
{"Supplier Name":"Unisys Australia Pty Ltd","ABN":"31 105 642 902","State":"ACT","Postcode":2600}
{"Supplier Name":"UXC Consulting Pty Ltd","ABN":"83 121 920 938","State":"ACT","Postcode":2609}
{"Supplier Name":"Veerpoint Pty Ltd","ABN":"88 154 144 386","State":"ACT","Postcode":2905}
{"Supplier Name":"Verizon","ABN":"62 081 001 194","State":"ACT","Postcode":2602}
{"Supplier Name":"VTS Canberra Pty Ltd","ABN":"67 168 829 641","State":"NSW","Postcode":2085}
{"Supplier Name":"WDScott Asia Pty Ltd","ABN":"19 125 833 356","State":"ACT","Postcode":2600}
{"Supplier Name":"Westbourne Consulting Pty Ltd","ABN":"12 068 092 491","State":"ACT","Postcode":2605}
{"Supplier Name":"Whizdom Pty Ltd","ABN":"52 119 884 945","State":"ACT","Postcode":2617}
{"Supplier Name":"Wipro Ltd","ABN":"18 093 961 936","State":"ACT","Postcode":2600}